NORAD_CAT_ID,OBJECT_NAME,OBJECT_TYPE,EPOCH,MEAN_MOTION,ECCENTRICITY,INCLINATION,RA_OF_ASC_NODE,ARG_OF_PERICENTER,MEAN_ANOMALY,BSTAR,MEAN_MOTION_DOT,MEAN_MOTION_DDOT,TLE_LINE0,TLE_LINE1,TLE_LINE2,SEMIMAJOR_AXIS,PERIOD,APOGEE,PERIGEE,DECAYED
53422.0,STARLINK-4546,PAYLOAD,2024-02-05 10:44:12,15.08839545,0.000158,53.2172,300.4481,77.1359,282.981,7.8945e-05,9.69e-06,0.0,0 STARLINK-4546,1 53422U 22097AL  24036.44736484  .00000969  00000-0  78945-4 0  9992,2 53422  53.2172 300.4481 0001580  77.1359 282.9810 15.08839545 82945,6917.882,95.438,540.84,538.654,0.0
53422.0,STARLINK-4546,PAYLOAD,2024-02-05 21:51:54,15.08841313,0.0001317,53.2163,298.3668,72.576,287.5376,8.9086e-05,1.13e-05,0.0,0 STARLINK-4546,1 53422U 22097AL  24036.91104355  .00001130  00000-0  89086-4 0  9999,2 53422  53.2163 298.3668 0001317  72.5760 287.5376 15.08841313 83495,6917.876,95.437,540.652,538.83,0.0
53422.0,STARLINK-4546,PAYLOAD,2024-02-05 23:27:17,15.08839779,0.0001071,53.2154,298.0702,67.9405,292.1701,5.9334e-05,6.57e-06,0.0,0 STARLINK-4546,1 53422U 22097AL  24036.97728375  .00000657  00000-0  59334-4 0  9995,2 53422  53.2154 298.0702 0001071  67.9405 292.1701 15.08839779 83501,6917.881,95.438,540.487,539.005,0.0
53422.0,STARLINK-4546,PAYLOAD,2024-02-07 02:28:50,15.08850245,0.0001257,53.2164,293.0144,86.3174,273.7962,0.00027945,4.164e-05,0.0,0 STARLINK-4546,1 53422U 22097AL  24038.10335986  .00004164  00000-0  27945-3 0  9993,2 53422  53.2164 293.0144 0001257  86.3174 273.7962 15.08850245 83191,6917.849,95.437,540.584,538.845,0.0
53422.0,STARLINK-4546,PAYLOAD,2024-02-07 10:25:46,15.08837385,0.0001549,53.2161,291.53,82.3569,277.7599,3.298e-05,2.37e-06,0.0,0 STARLINK-4546,1 53422U 22097AL  24038.43456528  .00000237  00000-0  32980-4 0  9998,2 53422  53.2161 291.5300 0001549  82.3569 277.7599 15.08837385 83249,6917.888,95.438,540.825,538.682,0.0
53422.0,STARLINK-4546,PAYLOAD,2024-02-07 21:33:27,15.088343,0.0001656,53.217,289.4443,99.2426,260.8753,1.1315e-05,-1.08e-06,0.0,0 STARLINK-4546,1 53422U 22097AL  24038.89824018 -.00000108  00000-0  11315-4 0  9998,2 53422  53.2170 289.4443 0001656  99.2426 260.8753 15.08834300 83790,6917.898,95.438,540.908,538.617,0.0
53422.0,STARLINK-4546,PAYLOAD,2024-02-08 02:19:37,15.08840013,0.0001423,53.2171,288.5535,95.5765,264.5389,9.2688e-05,1.187e-05,0.0,0 STARLINK-4546,1 53422U 22097AL  24039.09696566  .00001187  00000-0  92688-4 0  9995,2 53422  53.2171 288.5535 0001423  95.5765 264.5389 15.08840013 83828,6917.88,95.438,540.73,538.761,0.0
53422.0,STARLINK-4546,PAYLOAD,2024-02-08 19:48:52,15.08844579,0.0001576,53.2175,285.281,108.065,252.0514,0.00020742,3.015e-05,0.0,0 STARLINK-4546,1 53422U 22097AL  24039.82560641  .00003015  00000-0  20742-3 0  9993,2 53422  53.2175 285.2810 0001576 108.0650 252.0514 15.08844579 83456,6917.866,95.437,540.822,538.641,0.0
53422.0,STARLINK-4546,PAYLOAD,2024-02-08 21:24:15,15.08843084,0.0001546,53.2167,284.9847,103.5102,256.6062,0.00039331,5.978e-05,0.0,0 STARLINK-4546,1 53422U 22097AL  24039.89184779  .00005978  00000-0  39331-3 0  9998,2 53422  53.2167 284.9847 0001546 103.5102 256.6062 15.08843084 83944,6917.871,95.437,540.805,538.666,0.0
53422.0,STARLINK-4546,PAYLOAD,2024-02-08 22:59:38,15.08845833,0.000157,53.2168,284.6872,103.0456,257.0711,0.0004395,6.715e-05,0.0,0 STARLINK-4546,1 53422U 22097AL  24039.95808691  .00006715  00000-0  43950-3 0  9993,2 53422  53.2168 284.6872 0001570 103.0456 257.0711 15.08845833 83955,6917.863,95.437,540.814,538.641,0.0
53422.0,STARLINK-4546,PAYLOAD,2024-02-09 19:39:39,15.08841069,0.000178,53.2167,280.8216,119.0075,241.1096,0.00017113,2.437e-05,0.0,0 STARLINK-4546,1 53422U 22097AL  24040.81920959  .00002437  00000-0  17113-3 0  9991,2 53422  53.2167 280.8216 0001780 119.0075 241.1096 15.08841069 83600,6917.877,95.437,540.974,538.511,0.0
53422.0,STARLINK-4546,PAYLOAD,2024-02-09 22:50:26,15.08839211,0.0001452,53.2162,280.2292,110.639,249.4758,9.2397e-05,1.183e-05,0.0,0 STARLINK-4546,1 53422U 22097AL  24040.95169020  .00001183  00000-0  92397-4 0  9995,2 53422  53.2162 280.2292 0001452 110.6390 249.4758 15.08839211 84104,6917.883,95.438,540.752,538.743,0.0
53422.0,STARLINK-4546,PAYLOAD,2024-02-10 21:05:49,15.08847891,0.0001368,53.2159,276.0679,107.7265,252.3876,0.00023129,3.396e-05,0.0,0 STARLINK-4546,1 53422U 22097AL  24041.87904992  .00003396  00000-0  23129-3 0  9996,2 53422  53.2159 276.0679 0001368 107.7265 252.3876 15.08847891 83764,6917.856,95.437,540.668,538.775,0.0
53422.0,STARLINK-4546,PAYLOAD,2024-02-10 22:41:12,15.08849778,0.0001366,53.2159,275.7707,107.318,252.7962,0.00027151,4.037e-05,0.0,0 STARLINK-4546,1 53422U 22097AL  24041.94528924  .00004037  00000-0  27151-3 0  9993,2 53422  53.2159 275.7707 0001366 107.3180 252.7962 15.08849778 84253,6917.851,95.437,540.66,538.771,0.0
53422.0,STARLINK-4546,PAYLOAD,2024-02-11 01:51:59,15.08853195,0.0001309,53.2158,275.1741,100.2071,259.9069,0.0003815,5.791e-05,0.0,0 STARLINK-4546,1 53422U 22097AL  24042.07776830  .00005791  00000-0  38150-3 0  9998,2 53422  53.2158 275.1741 0001309 100.2071 259.9069 15.08853195 84279,6917.84,95.437,540.611,538.8,0.0
53422.0,STARLINK-4546,PAYLOAD,2024-02-11 20:56:36,15.08844469,0.0001321,53.2158,271.6041,87.6288,272.4855,0.00014909,2.086e-05,0.0,0 STARLINK-4546,1 53422U 22097AL  24042.87264934  .00002086  00000-0  14909-3 0  9993,2 53422  53.2158 271.6041 0001321  87.6288 272.4855 15.08844469 83912,6917.867,95.437,540.646,538.818,0.0
53422.0,STARLINK-4546,PAYLOAD,2024-02-11 22:32:00,15.08846195,0.0001336,53.216,271.3062,79.329,280.7852,0.00022199,3.247e-05,0.0,0 STARLINK-4546,1 53422U 22097AL  24042.93888914  .00003247  00000-0  22199-3 0  9990,2 53422  53.2160 271.3062 0001336  79.3290 280.7852 15.08846195 84404,6917.861,95.437,540.651,538.802,0.0
53422.0,STARLINK-4546,PAYLOAD,2024-02-12 00:07:22,15.08849214,0.000135,53.2161,271.009,85.1531,274.9615,0.0002239,3.278e-05,0.0,0 STARLINK-4546,1 53422U 22097AL  24043.00512718  .00003278  00000-0  22390-3 0  9992,2 53422  53.2161 271.0090 0001350  85.1531 274.9615 15.08849214 84410,6917.852,95.437,540.651,538.783,0.0
53422.0,STARLINK-4546,PAYLOAD,2024-02-12 19:12:00,15.0883975,0.0001759,53.2148,267.4434,128.417,231.698,2.8174e-05,1.6e-06,0.0,0 STARLINK-4546,1 53422U 22097AL  24043.80001136  .00000160  00000-0  28174-4 0  9991,2 53422  53.2148 267.4434 0001759 128.4170 231.6980 15.08839750 84058,6917.881,95.438,540.963,538.529,0.0
53422.0,STARLINK-4546,PAYLOAD,2024-02-12 22:22:47,15.08837621,0.0001454,53.2159,266.8455,82.3726,277.7431,2.6383e-05,1.32e-06,0.0,0 STARLINK-4546,1 53422U 22097AL  24043.93249423  .00000132  00000-0  26383-4 0  9997,2 53422  53.2159 266.8455 0001454  82.3726 277.7431 15.08837621 84555,6917.888,95.438,540.759,538.747,0.0
53422.0,STARLINK-4546,PAYLOAD,2024-02-13 07:55:06,15.08838356,0.0001426,53.2157,265.0619,85.5365,274.579,9.7206e-05,1.259e-05,0.0,0 STARLINK-4546,1 53422U 22097AL  24044.32993594  .00001259  00000-0  97206-4 0  9999,2 53422  53.2157 265.0619 0001426  85.5365 274.5790 15.08838356 84615,6917.885,95.438,540.737,538.764,0.0
53422.0,STARLINK-4546,PAYLOAD,2024-02-13 20:38:11,15.08844171,0.000129,53.2143,262.6854,83.5621,276.5517,0.00022756,3.336e-05,0.0,0 STARLINK-4546,1 53422U 22097AL  24044.85985560  .00003336  00000-0  22756-3 0  9996,2 53422  53.2143 262.6854 0001290  83.5621 276.5517 15.08844171 84695,6917.868,95.437,540.625,538.84,0.0
53422.0,STARLINK-4546,PAYLOAD,2024-02-13 23:48:57,15.08849792,0.0001355,53.2146,262.0892,86.1755,273.9392,0.00035128,5.309e-05,0.0,0 STARLINK-4546,1 53422U 22097AL  24044.99233374  .00005309  00000-0  35128-3 0  9999,2 53422  53.2146 262.0892 0001355  86.1755 273.9392 15.08849792 84239,6917.85,95.437,540.653,538.778,0.0
53422.0,STARLINK-4546,PAYLOAD,2024-02-14 07:45:53,15.08847988,0.000143,53.2144,260.6027,85.9379,274.1776,0.00039606,6.022e-05,0.0,0 STARLINK-4546,1 53422U 22097AL  24045.32353485  .00006022  00000-0  39606-3 0  9991,2 53422  53.2144 260.6027 0001430  85.9379 274.1776 15.08847988 84766,6917.856,95.437,540.71,538.732,0.0
53422.0,STARLINK-4546,PAYLOAD,2024-02-14 20:28:58,15.08852041,0.0001454,53.2146,258.2238,85.3017,274.8141,0.00036784,5.573e-05,0.0,0 STARLINK-4546,1 53422U 22097AL  24045.85345200  .00005573  00000-0  36784-3 0  9999,2 53422  53.2146 258.2238 0001454  85.3017 274.8141 15.08852041 84369,6917.844,95.437,540.714,538.703,0.0
53422.0,STARLINK-4546,PAYLOAD,2024-02-15 07:36:40,15.0884068,0.0001691,53.2152,256.1413,88.9235,271.1951,4.5629e-05,4.38e-06,0.0,0 STARLINK-4546,1 53422U 22097AL  24046.31713483  .00000438  00000-0  45629-4 0  9997,2 53422  53.2152 256.1413 0001691  88.9235 271.1951 15.08840680 84918,6917.878,95.438,540.913,538.573,0.0
53422.0,STARLINK-4546,PAYLOAD,2024-02-15 20:19:45,15.08844111,0.0001273,53.2152,253.7624,92.5138,267.6,0.00012169,1.65e-05,0.0,0 STARLINK-4546,1 53422U 22097AL  24046.84705296  .00001650  00000-0  12169-3 0  9997,2 53422  53.2152 253.7624 0001273  92.5138 267.6000 15.08844111 84990,6917.868,95.437,540.613,538.852,0.0
53422.0,STARLINK-4546,PAYLOAD,2024-02-15 23:30:31,15.08844251,0.0001354,53.2159,253.1669,96.2081,263.9066,0.00010451,1.376e-05,0.0,0 STARLINK-4546,1 53422U 22097AL  24046.97953240  .00001376  00000-0  10451-3 0  9992,2 53422  53.2159 253.1669 0001354  96.2081 263.9066 15.08844251 85018,6917.867,95.437,540.669,538.796,0.0
53422.0,STARLINK-4546,PAYLOAD,2024-02-16 20:10:32,15.08840155,0.0001251,53.2159,249.3005,96.996,263.1174,-0.00017707,-3.105e-05,0.0,0 STARLINK-4546,1 53422U 22097AL  24047.84065581 -.00003105  00000-0 -17707-3 0  9996,2 53422  53.2159 249.3005 0001251  96.9960 263.1174 15.08840155 84669,6917.88,95.438,540.61,538.879,0.0
53422.0,STARLINK-4546,PAYLOAD,2024-02-16 23:21:19,15.08836656,0.0001312,53.2162,248.7056,99.3353,260.7788,-6.0069e-05,-1.244e-05,0.0,0 STARLINK-4546,1 53422U 22097AL  24047.97313794 -.00001244  00000-0 -60069-4 0  9994,2 53422  53.2162 248.7056 0001312  99.3353 260.7788 15.08836656 85164,6917.891,95.438,540.663,538.848,0.0
